satname,norad_id,inclination_deg,eccentricity,mean_motion_rev_per_day,perigee_km,apogee_km,l1,l2
STARLINK-1234,45190,53.0331,0.0002916,15.85888201,311.8735699163144,315.7763221232317,1 45190U 20012N   26195.85024878  .00090609  00000+0  36127-3 0  9994,2 45190  53.0331  54.3621 0002916 246.8453 113.2263 15.85888201355880
STARLINK-1269,45197,53.1526,0.0003248,15.38010743,449.7739263350895,454.2107783623751,1 45197U 20012V   26195.73511689  .00029080  00000+0  77362-3 0  9990,2 45197  53.1526 166.7774 0003248  47.4086 312.7191 15.38010743354406
STARLINK-1154,45198,53.04,0.0004207,15.66679531,365.57449500343773,371.25104197864766,1 45198U 20012W   26195.50111745  .00029941  00000+0  28393-3 0  9991,2 45198  53.0400 114.7142 0004207  90.7372 269.4125 15.66679531355058
STARLINK-1199,45201,53.1528,0.0005837,15.3795296,448.1765831290277,456.150275850413,1 45201U 20012Z   26195.25184241  .00033537  00000+0  89147-3 0  9999,2 45201  53.1528 153.3254 0005837  45.5157 314.6324 15.37952960354575
STARLINK-1209,45206,53.0348,0.0001594,15.74775278,344.1990188155469,346.34244119987306,1 45206U 20012AE  26195.84457769  .00045313  00000+0  30419-3 0  9990,2 45206  53.0348  71.7349 0001594 211.4367 148.6557 15.74775278354793
STARLINK-1231,45212,53.0355,0.0002797,15.30134996,473.49222965467106,477.32610338022096,1 45212U 20012AL  26195.34945884  .00029514  00000+0  10065-2 0  9991,2 45212  53.0355 149.6417 0002797  94.3115 265.8204 15.30134996354568
STARLINK-1271,45217,53.1534,0.0005506,15.38137036,447.85801274635287,455.3789394766454,1 45217U 20012AR  26195.17996375  .00040824  00000+0  10755-2 0  9991,2 45217  53.1534 153.7341 0005506  44.2525 315.8919 15.38137036354560
STARLINK-1191,45222,53.1534,0.0003093,15.42637671,436.2198321024607,440.4364974533919,1 45222U 20012AW  26195.19118155  .00012391  00000+0  28911-3 0  9993,2 45222  53.1534 125.5920 0003093  37.2065 322.9155 15.42637671354966
STARLINK-1212,45223,53.0384,0.0001358,15.73434154,348.17711542342386,350.0042304593944,1 45223U 20012AX  26195.86453781  .00044719  00000+0  31809-3 0  9994,2 45223  53.0384  87.2762 0001358 183.7422 176.3586 15.73434154355531
STARLINK-1215,45225,53.1531,0.0005208,15.38259543,447.6991089847479,454.81260458437464,1 45225U 20012AZ  26195.24111130  .00034186  00000+0  89956-3 0  9990,2 45225  53.1531 127.6802 0005208  53.8898 306.2587 15.38259543354895
STARLINK-1221,45227,53.0643,0.0002946,15.4655331,424.81305890865497,428.8225382759847,1 45227U 20012BB  26195.83927715  .00009479  00000+0  19596-3 0  9991,2 45227  53.0643  25.1050 0002946  67.9104 292.2215 15.46553310356352
STARLINK-1222,45228,53.0522,0.0003749,15.57698975,391.7793789722482,396.85736601054214,1 45228U 20012BC  26195.42316304  .00024130  00000+0  32542-3 0  9990,2 45228  53.0522  91.5272 0003749 104.1144 256.0284 15.57698975355321
STARLINK-1226,45229,53.1523,0.0004995,15.4807123,418.9719406072836,425.7656458947413,1 45229U 20012BD  26195.50350218  .00041890  00000+0  79035-3 0  9992,2 45229  53.1523 120.0545 0004995  54.7058 305.4417 15.48071230354968
STARLINK-1227,45230,53.151,0.0004437,15.48129553,419.18068564828263,425.2153029222118,1 45230U 20012BE  26195.51107522  .00028020  00000+0  53132-3 0  9993,2 45230  53.1510 120.0940 0004437  48.4992 311.6397 15.48129553355085
STARLINK-1246,45235,53.1529,0.0005169,15.38234416,447.80007688470687,454.8603801055251,1 45235U 20012BK  26195.21895909  .00031640  00000+0  83428-3 0  9991,2 45235  53.1529 168.8023 0005169  14.2961 345.8188 15.38234416354385
STARLINK-1270,45237,53.0382,0.000146,15.72340116,351.2282277502336,353.1934893249263,1 45237U 20012BM  26195.86390412  .00040559  00000+0  30280-3 0  9990,2 45237  53.0382  89.2258 0001460 183.2205 176.8804 15.72340116355502
STARLINK-1279,45360,53.0301,0.0003937,15.87239241,307.39386230480613,312.6601226324774,1 45360U 20019A   26195.86032539  .00102900  00000+0  38311-3 0  9999,2 45360  53.0301 188.7263 0003937  43.0524 317.0807 15.87239241350665
STARLINK-1301,45361,53.0285,0.0005986,15.8886709,301.45724266482557,309.4588426498949,1 45361U 20019B   26195.91670139  .00169635  00000+0  57611-3 0  9992,2 45361  53.0285 190.3358 0005986  44.8354  38.9388 15.88867090  5960
STARLINK-1262,45366,53.154,0.0002141,15.37224216,452.85909983960573,455.7847587531296,1 45366U 20019G   26195.53906883  .00024218  00000+0  66307-3 0  9992,2 45366  53.1540 294.0061 0002141 285.9021  74.1747 15.37224216349202
STARLINK-1273,45367,53.0406,0.0002761,15.62459001,378.6904623077553,382.4226128792143,1 45367U 20019H   26195.47232066  .00060264  00000+0  66664-3 0  9998,2 45367  53.0406 263.2513 0002761 350.1716   9.9243 15.62459001349608
STARLINK-1277,45369,53.0388,0.0003324,15.70890774,354.1114004227393,358.5884873430323,1 45369U 20019K   26195.41944526  .00037516  00000+0  29807-3 0  9997,2 45369  53.0388 255.2712 0003324  21.2051 338.9103 15.70890774349712
STARLINK-1281,45370,53.1567,0.0001718,15.38051782,450.69746003862383,453.0442507377347,1 45370U 20019L   26195.59588204  .00028661  00000+0  76171-3 0  9992,2 45370  53.1567 293.1657 0001718 306.9845  53.1001 15.38051782349223
STARLINK-1300,45374,53.1579,0.0001971,15.38732477,448.5106314593095,451.20222646900766,1 45374U 20019Q   26195.59405816  .00029792  00000+0  77395-3 0  9998,2 45374  53.1579 292.9298 0001971 293.2516  66.8281 15.38732477349220
STARLINK-1302,45375,53.0427,8.46e-05,15.71132496,355.0895038035633,356.2288621177204,1 45375U 20019R   26195.45251291  .00037317  00000+0  29359-3 0  9999,2 45375  53.0427 250.9014 0000846  69.0098 291.1009 15.71132496349779
STARLINK-1304,45376,53.0389,0.0001223,15.66738926,367.4171776377352,369.0673420046869,1 45376U 20019S   26195.61529319  .00027709  00000+0  26267-3 0  9996,2 45376  53.0389 252.5184 0001223 336.2590  23.8368 15.66738926349760
STARLINK-1305,45377,53.0349,0.000725,15.7645167,335.6324417240894,345.374470385369,1 45377U 20019T   26195.55155103  .00048646  00000+0  30273-3 0  9991,2 45377  53.0349 228.9540 0007250  18.2016 341.9262 15.76451670350090
STARLINK-1319,45379,53.0326,0.0004127,15.84580606,314.7426168054244,320.2692004622113,1 45379U 20019V   26195.86319201  .00080272  00000+0  34149-3 0  9995,2 45379  53.0326 217.1915 0004127  32.8166 327.3112 15.84580606350285
STARLINK-1266,45383,53.0421,0.0004569,15.69278128,357.883791451809,364.0419809278101,1 45383U 20019Z   26195.57290345  .00031178  00000+0  26579-3 0  9994,2 45383  53.0421 237.0208 0004569  14.2830 345.8314 15.69278128349973
STARLINK-1267,45384,53.0397,0.0002735,15.73938209,345.81482556109495,349.4938334183271,1 45384U 20019AA  26195.35409245  .00045259  00000+0  31496-3 0  9991,2 45384  53.0397 228.6332 0002735  40.0825 320.0394 15.73938209350078
STARLINK-1272,45386,53.0352,0.0002924,15.79093722,331.04485517919875,334.96953230369854,1 45386U 20019AC  26195.33342575  .00061923  00000+0  34149-3 0  9997,2 45386  53.0352 206.2789 0002924  52.1069 308.0215 15.79093722350383
STARLINK-1274,45387,53.0149,0.0006036,15.69191534,357.14293980301863,365.2786804794223,1 45387U 20019AD  26195.51223201  .00081166  00000+0  68207-3 0  9995,2 45387  53.0149 207.0141 0006036 335.6790  24.3940 15.69191534350389
STARLINK-1280,45388,53.0284,0.0006453,15.92621191,290.6447934410162,299.2570807326201,1 45388U 20019AE  26195.91670139  .00206023  27097-4  59520-3 0  9995,2 45388  53.0284 207.5266 0006453  35.8783 338.7747 15.92621191  6071
STARLINK-1283,45389,53.0332,0.0004375,15.76425956,337.63707979204446,343.5159541193816,1 45389U 20019AF  26195.36699281  .00049153  00000+0  30647-3 0  9992,2 45389  53.0332 205.3825 0004375  13.6990 346.4147 15.76425956350400
STARLINK-1284,45390,53.0386,0.0004201,15.74422444,343.4502609314368,349.10011205052615,1 45390U 20019AG  26195.36266046  .00044400  00000+0  30265-3 0  9999,2 45390  53.0386 229.7794 0004201  65.5740 294.5717 15.74422444350057
STARLINK-1297,45395,53.0382,0.000382,15.77630298,334.5915218163809,339.7220062521037,1 45395U 20019AM  26195.79007525  .00051758  00000+0  30572-3 0  9991,2 45395  53.0382 226.3239 0003820  34.0423 326.0841 15.77630298349328
STARLINK-1307,45397,53.0503,0.0002333,15.59133884,388.5834531853916,391.74154173090574,1 45397U 20019AP  26195.38025793  .00022531  00000+0  28846-3 0  9993,2 45397  53.0503 238.4836 0002333   4.2201 355.8830 15.59133884349768
STARLINK-1255,45399,53.0306,0.0001493,15.6916057,360.2932696489288,362.30566537812774,1 45399U 20019AR  26195.51496130  .00033384  00000+0  28565-3 0  9993,2 45399  53.0306 203.0509 0001493 347.1441  12.9537 15.69160570350251
STARLINK-1260,45404,53.1529,0.0001925,15.41292003,440.9821912608613,443.60805762877226,1 45404U 20019AW  26195.43375653  .00027735  00000+0  66330-3 0  9992,2 45404  53.1529 255.8108 0001925 304.4392  55.6432 15.41292003349441
STARLINK-1263,45405,53.1548,0.0003036,15.38317452,449.01111191953623,453.15781519220764,1 45405U 20019AX  26195.47449210  .00025655  00000+0  67728-3 0  9999,2 45405  53.1548 257.6545 0003036 311.7514  48.3230 15.38317452349425
STARLINK-1265,45406,53.1536,0.0002455,15.41772647,439.2034802532653,442.55161639649214,1 45406U 20019AY  26195.48168026  .00030171  00000+0  70908-3 0  9997,2 45406  53.1536 255.4692 0002455 354.4742   5.6236 15.41772647349453
STARLINK-1278,45408,53.0357,0.0003072,15.78820448,331.7196798897785,335.84348266611414,1 45408U 20019BA  26195.53809462  .00052001  00000+0  29126-3 0  9993,2 45408  53.0357 226.2187 0003072  41.0863 319.0388 15.78820448349845
STARLINK-1296,45412,53.1528,0.000111,15.41905301,439.72957084075824,441.24330524400284,1 45412U 20019BE  26195.45214310  .00036798  00000+0  85824-3 0  9993,2 45412  53.1528 255.2516 0001110 318.4185  41.6736 15.41905301349452
STARLINK-1309,45414,53.0561,0.0003484,15.76988319,336.63889112102424,341.31937764346276,1 45414U 20019BG  26195.52713044  .00046115  00000+0  28090-3 0  9997,2 45414  53.0561 220.6757 0003484  42.8994 317.2297 15.76988319349907
